1 43570U 18061B   25076.52053546  .00000040  00000+0  70642-5 0  9992
2 43570  86.3927 247.5243 0001791  86.6056 273.5345 14.34217881347947
1 43571U 18061C   25076.55859285  .00000020  00000+0 -43365-7 0  9993
2 43571  86.3927 247.5183 0002186  88.0981 272.0465 14.34217609347915
1 43572U 18061D   25076.51419354  .00000029  00000+0  34095-5 0  9995
2 43572  86.3929 247.5744 0001942  96.7868 263.3549 14.34217802347933
1 43573U 18061E   25076.54590663  .00000010  00000+0 -35224-5 0  9998
2 43573  86.3927 247.4531 0001959  83.7192 276.4227 14.34217332347902
1 43574U 18061F   25076.52687857  .00000008  00000+0 -40503-5 0  9992
2 43574  86.3930 247.5718 0002036  93.3992 266.7436 14.34217289347957
1 43575U 18061G   25076.50784717  .00000249  00000+0  81992-4 0  9996
2 43575  86.3922 247.5089 0002166  95.5744 264.5699 14.34216586347926
1 43576U 18061H   25076.55224921  .00000011  00000+0 -32977-5 0  9996
2 43576  86.3927 247.4979 0001939  81.5907 278.5509 14.34217498347920
